{
    "links": {
        "self": "http://www.neowsapp.com/rest/v1/neo/3611397?api_key=iIulBulltgU6a56xZRHN4H3l9WmuAYTsLGpBGhQ2"
    },
    "id": "3611397",
    "neo_reference_id": "3611397",
    "name": "(2012 TR146)",
    "designation": "2012 TR146",
    "nasa_jpl_url": "http://ssd.jpl.nasa.gov/sbdb.cgi?sstr=3611397",
    "absolute_magnitude_h": 23.7,
    "estimated_diameter": {
        "kilometers": {
            "estimated_diameter_min": 0.0483676488,
            "estimated_diameter_max": 0.1081533507
        },
        "meters": {
            "estimated_diameter_min": 48.3676488219,
            "estimated_diameter_max": 108.1533506775
        },
        "miles": {
            "estimated_diameter_min": 0.0300542543,
            "estimated_diameter_max": 0.0672033557
        },
        "feet": {
            "estimated_diameter_min": 158.6865169607,
            "estimated_diameter_max": 354.8338390368
        }
    },
    "is_potentially_hazardous_asteroid": false,
    "close_approach_data": [
        {
            "close_approach_date": "2012-10-20",
            "close_approach_date_full": "2012-Oct-20 08:40",
            "epoch_date_close_approach": 1350722400000,
            "relative_velocity": {
                "kilometers_per_second": "1.0647060563",
                "kilometers_per_hour": "3832.9418027724",
                "miles_per_hour": "2381.6409773949"
            },
            "miss_distance": {
                "astronomical": "0.1822598472",
                "lunar": "70.8990805608",
                "kilometers": "27265684.927645464",
                "miles": "16942110.9979128432"
            },
            "orbiting_body": "Earth"
        },
        {
            "close_approach_date": "2022-05-29",
            "close_approach_date_full": "2022-May-29 13:42",
            "epoch_date_close_approach": 1653831720000,
            "relative_velocity": {
                "kilometers_per_second": "5.5249017039",
                "kilometers_per_hour": "19889.6461342122",
                "miles_per_hour": "12358.6526215609"
            },
            "miss_distance": {
                "astronomical": "0.0172649762",
                "lunar": "6.7160757418",
                "kilometers": "2582803.665120694",
                "miles": "1604879.7782418172"
            },
            "orbiting_body": "Mars"
        }
    ],
    "orbital_data": {
        "orbit_id": "8",
        "orbit_determination_date": "2017-04-06 08:48:34",
        "first_observation_date": "2012-10-11",
        "last_observation_date": "2012-11-20",
        "data_arc_in_days": 40,
        "observations_used": 26,
        "orbit_uncertainty": "7",
        "minimum_orbit_intersection": ".173212",
        "jupiter_tisserand_invariant": "4.376",
        "epoch_osculation": "2459000.5",
        "eccentricity": ".2576534038978557",
        "semi_major_axis": "1.569632040251615",
        "inclination": "1.230196468425816",
        "ascending_node_longitude": "69.17847697415766",
        "orbital_period": "718.2823744970885",
        "perihelion_distance": "1.16521100221365",
        "perihelion_argument": "329.2500108462615",
        "aphelion_distance": "1.97405307828958",
        "perihelion_time": "2459110.091335808829",
        "mean_anomaly": "305.0732994544081",
        "mean_motion": ".5011956478147707",
        "equinox": "J2000",
        "orbit_class": {
            "orbit_class_type": "AMO",
            "orbit_class_description": "Near-Earth asteroid orbits similar to that of 1221 Amor",
            "orbit_class_range": "1.017 AU < q (perihelion) < 1.3 AU"
        }
    },
    "is_sentry_object": false
}